{
    "links": {
        "self": "http://www.neowsapp.com/rest/v1/neo/3837800?api_key=iIulBulltgU6a56xZRHN4H3l9WmuAYTsLGpBGhQ2"
    },
    "id": "3837800",
    "neo_reference_id": "3837800",
    "name": "(2019 AP9)",
    "designation": "2019 AP9",
    "nasa_jpl_url": "http://ssd.jpl.nasa.gov/sbdb.cgi?sstr=3837800",
    "absolute_magnitude_h": 19.6,
    "estimated_diameter": {
        "kilometers": {
            "estimated_diameter_min": 0.3195618867,
            "estimated_diameter_max": 0.7145621017
        },
        "meters": {
            "estimated_diameter_min": 319.5618867213,
            "estimated_diameter_max": 714.5621017269
        },
        "miles": {
            "estimated_diameter_min": 0.1985664891,
            "estimated_diameter_max": 0.4440081677
        },
        "feet": {
            "estimated_diameter_min": 1048.4314204307,
            "estimated_diameter_max": 2344.3639258298
        }
    },
    "is_potentially_hazardous_asteroid": false,
    "close_approach_data": [
        {
            "close_approach_date": "2018-11-27",
            "close_approach_date_full": "2018-Nov-27 08:49",
            "epoch_date_close_approach": 1543308540000,
            "relative_velocity": {
                "kilometers_per_second": "32.7380184723",
                "kilometers_per_hour": "117856.8665001569",
                "miles_per_hour": "73231.6735206114"
            },
            "miss_distance": {
                "astronomical": "0.4507723965",
                "lunar": "175.3504622385",
                "kilometers": "67434590.371195455",
                "miles": "41901911.439209079"
            },
            "orbiting_body": "Earth"
        }
    ],
    "orbital_data": {
        "orbit_id": "3",
        "orbit_determination_date": "2019-03-30 07:02:56",
        "first_observation_date": "2019-01-08",
        "last_observation_date": "2019-01-25",
        "data_arc_in_days": 17,
        "observations_used": 26,
        "orbit_uncertainty": "8",
        "minimum_orbit_intersection": ".31644",
        "jupiter_tisserand_invariant": "3.393",
        "epoch_osculation": "2458500.5",
        "eccentricity": ".7305217405068067",
        "semi_major_axis": "2.009790892590347",
        "inclination": "18.65564881057561",
        "ascending_node_longitude": "132.0612552830378",
        "orbital_period": "1040.698042528171",
        "perihelion_distance": ".5415949516805181",
        "perihelion_argument": "182.5761457685328",
        "aphelion_distance": "3.477986833500176",
        "perihelion_time": "2458407.796568221847",
        "mean_anomaly": "32.06812550455209",
        "mean_motion": ".3459216653520851",
        "equinox": "J2000",
        "orbit_class": {
            "orbit_class_type": "APO",
            "orbit_class_description": "Near-Earth asteroid orbits which cross the Earth’s orbit similar to that of 1862 Apollo",
            "orbit_class_range": "a (semi-major axis) > 1.0 AU; q (perihelion) < 1.017 AU"
        }
    },
    "is_sentry_object": false
}